IRIDIUM 166             
1 43570U 18061B   24206.42387060  .00000048  00000+0  10187-4 0  9991
2 43570  86.3993 346.2458 0002417  89.8314 270.3159 14.34215273314106
IRIDIUM 165             
1 43572U 18061D   24206.41752887  .00000088  00000+0  24491-4 0  9992
2 43572  86.4001 346.2919 0002162  90.0491 270.0953 14.34217848314095
IRIDIUM 155             
1 43573U 18061E   24206.93762142  .00000324  00000+0  10868-3 0  9990
2 43573  86.3995 345.9779 0002387  88.2673 271.8797 14.34217491314131
IRIDIUM 154             
1 43574U 18061F   24206.91859074  .00000158  00000+0  49252-4 0  9995
2 43574  86.3999 346.0853 0002063  98.9477 261.1952 14.34216395314184
IRIDIUM 163             
1 43575U 18061G   24206.41118638  .00000298  00000+0  99201-4 0  9999
2 43575  86.3999 346.2345 0002143  95.2114 264.9326 14.34218054314089
IRIDIUM 156             
1 43576U 18061H   24206.94396358  .00000446  00000+0  15209-3 0  9995
2 43576  86.3997 346.0180 0002142  86.9529 273.1912 14.34217530314158
IRIDIUM 164             
1 43577U 18061J   24206.92493538  .00000295  00000+0  98426-4 0  9997
2 43577  86.3998 346.0554 0001843  92.1969 267.9437 14.34217058314191
